OBJECT_NAME,OBJECT_ID,EPOCH,MEAN_MOTION,ECCENTRICITY,INCLINATION,RA_OF_ASC_NODE,ARG_OF_PERICENTER,MEAN_ANOMALY,EPHEMERIS_TYPE,CLASSIFICATION_TYPE,NORAD_CAT_ID,ELEMENT_SET_NO,REV_AT_EPOCH,BSTAR,MEAN_MOTION_DOT,MEAN_MOTION_DDOT
IRIDIUM 138,2017-083B,2026-07-12T20:26:31.168032,14.34218126,.000206,86.3998,310.9863,91.9640,268.1792,0,U,43071,999,44781,.43258E-4,.141E-5,0
IRIDIUM 116,2017-083C,2026-07-12T19:40:51.041280,14.34217401,.0002418,86.3986,311.2860,99.5317,260.6152,0,U,43072,999,44784,.48893E-4,.157E-5,0
IRIDIUM 130,2017-083D,2026-07-12T20:35:39.397632,14.34217381,.0002215,86.3992,311.5478,100.9883,259.1562,0,U,43073,999,44779,.39879E-4,.131E-5,0
IRIDIUM 151,2017-083E,2026-07-12T19:59:07.243008,14.34217677,.0002235,86.3986,311.3388,95.3747,264.7704,0,U,43074,999,44781,.44299E-4,.144E-5,0
IRIDIUM 134,2017-083F,2026-07-12T20:53:55.183776,14.34218184,.0002194,86.3986,311.3314,95.4857,264.6589,0,U,43075,999,44778,.3803E-4,.126E-5,0
IRIDIUM 137,2017-083G,2026-07-12T19:31:43.318848,14.34218094,.0002664,86.3989,311.4486,94.2144,265.9357,0,U,43076,999,44784,.40113E-4,.132E-5,0
IRIDIUM 141,2017-083H,2026-07-12T21:03:03.117024,14.34217762,.0002151,86.3984,311.2512,93.1739,266.9703,0,U,43077,999,44785,.45266E-4,.147E-5,0
IRIDIUM 153,2017-083J,2026-07-13T04:16:31.411776,14.34217725,.0002114,86.3960,279.6051,94.3616,265.7822,0,U,43078,999,44900,.15945E-4,.64E-6,0
IRIDIUM 131,2017-083K,2026-07-12T20:44:47.277312,14.34217678,.0002262,86.3990,311.4441,93.0596,267.0858,0,U,43079,999,44778,.10978E-4,.51E-6,0
IRIDIUM 144,2018-030A,2026-07-13T04:25:39.444384,14.34217771,.0002379,86.3957,279.5309,97.8331,262.3135,0,U,43249,999,43386,.13014E-4,.56E-6,0
IRIDIUM 149,2018-030B,2026-07-12T18:31:59.460672,14.34217836,.000225,86.3958,279.6700,93.4321,266.7132,0,U,43250,999,43382,.33394E-4,.113E-5,0
IRIDIUM 157,2018-030C,2026-07-13T05:02:11.662944,14.34217569,.0002259,86.3961,279.5410,94.2414,265.9039,0,U,43251,999,43386,.41893E-4,.137E-5,0
IRIDIUM 140,2018-030D,2026-07-12T17:46:19.608672,14.34217052,.0002232,86.3960,279.7497,95.7422,264.4028,0,U,43252,999,43385,.46127E-4,.149E-5,0
IRIDIUM 145,2018-030E,2026-07-12T17:28:03.302400,14.34217167,.0002473,86.3959,279.7269,100.6657,259.4817,0,U,43253,999,43378,.41833E-4,.137E-5,0
IRIDIUM 146,2018-030F,2026-07-13T04:43:55.424928,14.34217210,.0002388,86.3959,279.5430,96.8399,263.3068,0,U,43254,999,43386,.52484E-5,.34E-6,0
IRIDIUM 148,2018-030G,2026-07-13T05:38:43.710432,14.34217626,.0002348,86.3961,279.5705,94.1462,266.0002,0,U,43255,999,43390,.47069E-4,.152E-5,0
IRIDIUM 142,2018-030H,2026-07-12T20:30:43.466400,14.34217997,.0002396,86.3955,279.6179,97.8058,262.3409,0,U,43256,999,43381,.34539E-4,.117E-5,0
IRIDIUM 150,2018-030J,2026-07-13T04:07:23.136384,14.34216245,.000212,86.3958,279.6021,96.3580,263.7858,0,U,43257,999,43388,-.80601E-4,-.206E-5,0
IRIDIUM 143,2018-030K,2026-07-12T17:37:11.481888,14.34217359,.0002315,86.3963,279.8786,96.3911,263.7548,0,U,43258,999,43375,.18596E-4,.72E-6,0
IRIDIUM 161,2018-047C,2026-07-11T03:46:43.203072,14.43284936,.00023067,86.4467,78.4474,78.8180,281.3280,0,U,43478,999,42859,.45078032E-4,.172E-5,0
IRIDIUM 152,2018-047D,2026-07-12T18:38:22.547904,14.34219612,.0002135,86.3939,77.6313,82.7944,277.3495,0,U,43479,999,42615,.45304E-4,.147E-5,0
IRIDIUM 147,2018-047E,2026-07-12T17:07:02.157888,14.34217360,.0002269,86.3940,77.6635,88.3158,271.8298,0,U,43480,999,42614,.42503E-4,.139E-5,0
IRIDIUM 110,2018-047F,2026-07-12T23:58:02.312832,14.34217966,.0002156,86.3943,77.6367,76.5156,283.6280,0,U,43481,999,42617,.45155E-4,.146E-5,0
IRIDIUM 162,2018-047G,2026-07-10T02:40:06.655296,14.43283456,.00021871,86.4467,78.7759,84.2783,275.8667,0,U,43482,999,42843,.50126108E-4,.189E-5,0
IRIDIUM 160,2018-061A,2026-07-13T00:20:30.323040,14.34216471,.0002221,86.3942,45.9944,85.9208,274.2242,0,U,43569,999,41707,.36777E-4,.123E-5,0
IRIDIUM 166,2018-061B,2026-07-11T12:06:46.347840,14.34217869,.00022602,86.3940,46.5761,89.6407,270.5047,0,U,43570,999,41688,.3931712E-5,.31E-6,0
IRIDIUM 158,2018-061C,2026-07-13T00:11:22.484832,14.34217395,.0002062,86.3940,45.9570,86.4900,273.6532,0,U,43571,999,41706,.13891E-4,.59E-6,0
IRIDIUM 165,2018-061D,2026-07-12T13:04:38.438976,14.34217303,.00022661,86.3942,46.1976,90.8182,269.3273,0,U,43572,999,41702,.25565263E-4,.91E-6,0
IRIDIUM 155,2018-061E,2026-07-12T23:53:06.448128,14.34217272,.0002101,86.3939,45.8772,89.0391,271.1045,0,U,43573,999,41705,.21377E-4,.8E-6,0
IRIDIUM 154,2018-061F,2026-07-12T23:25:42.405600,14.34217677,.000229,86.3939,46.0199,90.2033,269.9425,0,U,43574,999,41710,.38745E-4,.128E-5,0
IRIDIUM 163,2018-061G,2026-07-13T00:38:46.419360,14.34217630,.0002152,86.3937,45.9131,85.5925,274.5517,0,U,43575,999,41708,.31283E-4,.107E-5,0
